OBJECT_NAME,OBJECT_ID,EPOCH,MEAN_MOTION,ECCENTRICITY,INCLINATION,RA_OF_ASC_NODE,ARG_OF_PERICENTER,MEAN_ANOMALY,EPHEMERIS_TYPE,CLASSIFICATION_TYPE,NORAD_CAT_ID,ELEMENT_SET_NO,REV_AT_EPOCH,BSTAR,MEAN_MOTION_DOT,MEAN_MOTION_DDOT
BEIDOU-3 G4,2023-066A,2026-06-09T22:33:29.071584,1.00266001,.00044086,0.4956,329.5016,170.9517,236.1661,0,U,56564,999,1132,0,-.266E-5,0
ARABSAT-7B (BADR-8),2023-075A,2026-06-09T04:54:22.560192,1.00274137,.0004751,0.0760,28.2038,356.4437,332.5435,0,U,56757,999,1103,0,.162E-5,0
NVS-01 (IRNSS-1J),2023-076A,2026-06-09T19:05:12.569568,1.00268760,.00030394,2.1846,244.6956,39.4003,29.9484,0,U,56759,999,1104,0,-.317E-5,0
NUSANTARA TIGA (SATRIA),2023-086A,2026-06-09T14:41:38.532192,1.00269365,.00035307,0.0364,345.8744,0.2979,278.2245,0,U,57045,999,968,0,-.218E-5,0
H2SAT (HEINRICH HERTZ),2023-093A,2026-06-09T16:45:49.402944,1.00272260,.00015736,0.0542,111.7137,26.5903,11.9132,0,U,57213,999,1084,0,.19E-6,0
SYRACUSE 4B,2023-093B,2026-06-09T04:02:38.567616,1.00270453,.00002235,0.0189,344.6046,235.0158,92.1727,0,U,57214,999,688,0,0,0
JUPITER 3 (ECHOSTAR 24),2023-108A,2026-06-09T13:09:15.910848,1.00270728,.00012298,0.0206,339.3711,99.5415,281.1012,0,U,57479,999,1056,0,0,0
GALAXY 37 (G-37),2023-112A,2026-06-09T16:09:19.764288,1.00271821,.00018837,0.0179,356.1906,84.3210,292.8728,0,U,57493,999,1046,0,.65E-6,0
LUDI TANCE-4 01A,2023-120A,2026-06-09T14:55:53.120640,1.00270613,.00008514,15.1069,194.1587,73.6261,303.9011,0,U,57624,999,1047,0,-.156E-5,0
TJS-10,2023-169A,2026-06-09T17:11:55.600800,1.00267094,.0004022,2.5242,80.5786,100.4016,67.4655,0,U,58204,999,946,0,-.231E-5,0
ZHONGXING-6E,2023-172A,2026-06-09T22:26:29.742144,1.00268630,.00024048,0.0157,33.5082,48.0828,268.8577,0,U,58253,999,958,0,-.344E-5,0
YAOGAN-41,2023-197A,2026-06-09T20:46:01.314336,1.00274484,.0014088,3.1429,313.0134,193.1838,186.7281,0,U,58582,999,925,0,-.346E-5,0
OVZON-3,2024-003A,2026-06-09T20:13:57.856800,1.00272049,.00001557,0.0063,271.7822,279.1439,70.4800,0,U,58698,999,737,0,.69E-6,0
INSAT-3DS,2024-033A,2026-06-09T17:08:55.889664,1.00272756,.0001191,0.0071,29.0411,44.4870,163.8785,0,U,58990,999,4699,0,-.139E-5,0
MERAH PUTIH 2,2024-035A,2026-06-09T19:00:28.024992,1.00267686,.00010154,0.0179,340.4163,98.9949,216.8186,0,U,58995,999,851,0,0,0
TJS-11,2024-037A,2026-06-07T15:04:52.671360,1.00174849,.0005501,4.2123,326.9451,181.0800,86.5687,0,U,59020,999,848,0,-.345E-5,0
HULIANWAN GAOGUI-01 (HG-01),2024-040A,2026-06-09T19:37:44.640192,1.00266807,.00028217,0.0663,330.0993,70.0193,186.1140,0,U,59069,999,725,0,.173E-5,0
EUTELSAT 36D,2024-059A,2026-06-09T11:47:50.121312,1.00270881,.00003482,0.0188,16.0447,163.8870,290.7760,0,U,59346,999,807,0,.173E-5,0
PAKSAT-MM1,2024-104A,2026-06-09T20:21:37.733760,1.00272695,.00019743,0.0338,102.6573,325.1146,174.0302,0,U,59915,999,745,0,.171E-5,0
ASTRA 1P (SES-24),2024-115A,2026-06-09T03:09:49.042368,1.00270234,.00008693,0.0552,6.4467,317.3959,0.3293,0,U,60086,999,711,0,.136E-5,0
GOES 19,2024-119A,2026-06-09T19:49:29.887968,1.00271567,.00004671,0.0350,149.5490,8.0992,322.7393,0,U,60133,999,689,0,-.231E-5,0
ZHONGXING-3A,2024-122A,2026-06-09T14:26:44.594592,1.00270748,.0001322,0.0442,136.8868,332.6455,106.7209,0,U,60179,999,723,0,-.296E-5,0
TURKSAT 6A,2024-127A,2026-06-09T10:06:47.211264,1.00272122,.00016294,0.0140,168.6699,327.2869,315.5349,0,U,60233,999,693,0,0,0
HULIANWAN GAOGUI-02 (HG-02),2024-135A,2026-06-09T17:29:16.442592,1.00268716,.00075105,0.0428,355.0957,12.1755,306.3259,0,U,60327,999,742,0,-.156E-5,0
ZHONGXING-4A,2024-151A,2026-06-09T19:01:57.880992,1.00269090,.00004726,1.3345,270.9273,214.7863,176.1586,0,U,60606,999,668,0,-.345E-5,0
HULIANWAN GAOGUI-03 (HG-03),2024-181A,2026-06-08T13:00:57.339648,1.00266015,.00012935,0.0452,355.5883,106.2275,273.1815,0,U,61503,999,673,0,-.225E-5,0
DSN-3 (KIRAMEKI-3),2024-198A,2026-06-09T19:09:19.675296,1.00269979,.00009034,0.0143,294.3595,224.7285,170.4795,0,U,61733,999,584,0,-.233E-5,0
KOREASAT 6A,2024-206A,2026-06-09T01:49:38.687808,1.00272075,.00009097,0.0410,134.5680,283.0920,343.2187,0,U,61910,999,575,0,-.345E-5,0
OPTUS-X (ADS-01),2024-212A,2026-06-09T19:12:49.339584,1.00270788,.00016946,0.0194,331.4289,147.9660,223.3900,0,U,62006,999,568,0,-.126E-5,0
GSAT-N2 (GSAT-20),2024-214A,2026-06-09T20:30:17.822016,1.00269115,.00019942,0.0161,152.3998,279.3971,202.0119,0,U,62028,999,582,0,-.2E-7,0
SXM-9,2024-234A,2026-06-09T15:21:50.641344,1.00270739,.00048003,0.0165,322.5469,351.5357,89.2433,0,U,62259,999,549,0,-.188E-5,0
