BEIDOU-3 G4             
1 56564U 23066A   26160.93991981 -.00000266  00000+0  00000+0 0  9990
2 56564   0.4956 329.5016 0004408 170.9517 236.1661  1.00266001 11322
ARABSAT-7B (BADR-8)     
1 56757U 23075A   26160.20442778  .00000162  00000+0  00000+0 0  9993
2 56757   0.0760  28.2038 0004751 356.4437 332.5435  1.00274137 11032
NVS-01 (IRNSS-1J)       
1 56759U 23076A   26160.79528437 -.00000317  00000+0  00000+0 0  9990
2 56759   2.1846 244.6956 0003039  39.4003  29.9484  1.00268760 11047
NUSANTARA TIGA (SATRIA) 
1 57045U 23086A   26160.61225153 -.00000218  00000+0  00000+0 0  9990
2 57045   0.0364 345.8744 0003530   0.2979 278.2245  1.00269365  9684
H2SAT (HEINRICH HERTZ)  
1 57213U 23093A   26160.69848846  .00000019  00000+0  00000+0 0  9991
2 57213   0.0542 111.7137 0001573  26.5903  11.9132  1.00272260 10843
SYRACUSE 4B             
1 57214U 23093B   26160.16850194  .00000000  00000+0  00000+0 0  9993
2 57214   0.0189 344.6046 0000223 235.0158  92.1727  1.00270453  6889
JUPITER 3 (ECHOSTAR 24) 
1 57479U 23108A   26160.54810082  .00000000  00000+0  00000+0 0  9997
2 57479   0.0206 339.3711 0001229  99.5415 281.1012  1.00270728 10560
GALAXY 37 (G-37)        
1 57493U 23112A   26160.67314542  .00000065  00000+0  00000+0 0  9993
2 57493   0.0179 356.1906 0001883  84.3210 292.8728  1.00271821 10466
LUDI TANCE-4 01A        
1 57624U 23120A   26160.62214260 -.00000156  00000+0  00000+0 0  9991
2 57624  15.1069 194.1587 0000851  73.6261 303.9011  1.00270613 10471
TJS-10                  
1 58204U 23169A   26160.71661575 -.00000231  00000+0  00000+0 0  9998
2 58204   2.5242  80.5786 0004022 100.4016  67.4655  1.00267094  9461
ZHONGXING-6E            
1 58253U 23172A   26160.93506646 -.00000344  00000+0  00000+0 0  9992
2 58253   0.0157  33.5082 0002404  48.0828 268.8577  1.00268630  9580
YAOGAN-41               
1 58582U 23197A   26160.86529299 -.00000346  00000+0  00000+0 0  9997
2 58582   3.1429 313.0134 0014088 193.1838 186.7281  1.00274484  9257
OVZON-3                 
1 58698U 24003A   26160.84303075  .00000069  00000+0  00000+0 0  9993
2 58698   0.0063 271.7822 0000155 279.1439  70.4800  1.00272049  7373
INSAT-3DS               
1 58990U 24033A   26160.71453576 -.00000139  00000+0  00000+0 0  9998
2 58990   0.0071  29.0411 0001191  44.4870 163.8785  1.00272756 46993
MERAH PUTIH 2           
1 58995U 24035A   26160.79199103  .00000000  00000+0  00000+0 0  9992
2 58995   0.0179 340.4163 0001015  98.9949 216.8186  1.00267686  8513
TJS-11                  
1 59020U 24037A   26158.62838740 -.00000345  00000+0  00000+0 0  9993
2 59020   4.2123 326.9451 0005501 181.0800  86.5687  1.00174849  8483
HULIANWAN GAOGUI-01 (H*)
1 59069U 24040A   26160.81787778  .00000173  00000+0  00000+0 0  9996
2 59069   0.0663 330.0993 0002821  70.0193 186.1140  1.00266807  7251
EUTELSAT 36D            
1 59346U 24059A   26160.49155233  .00000173  00000+0  00000+0 0  9993
2 59346   0.0188  16.0447 0000348 163.8870 290.7760  1.00270881  8079
PAKSAT-MM1              
1 59915U 24104A   26160.84835340  .00000171  00000+0  00000+0 0  9997
2 59915   0.0338 102.6573 0001974 325.1146 174.0302  1.00272695  7457
ASTRA 1P (SES-24)       
1 60086U 24115A   26160.13181762  .00000136  00000+0  00000+0 0  9995
2 60086   0.0552   6.4467 0000869 317.3959   0.3293  1.00270234  7116
GOES 19                 
1 60133U 24119A   26160.82604037 -.00000231  00000+0  00000+0 0  9990
2 60133   0.0350 149.5490 0000467   8.0992 322.7393  1.00271567  6891
ZHONGXING-3A            
1 60179U 24122A   26160.60190503 -.00000296  00000+0  00000+0 0  9999
2 60179   0.0442 136.8868 0001322 332.6455 106.7209  1.00270748  7237
TURKSAT 6A              
1 60233U 24127A   26160.42137976  .00000000  00000+0  00000+0 0  9992
2 60233   0.0140 168.6699 0001629 327.2869 315.5349  1.00272122  6936
HULIANWAN GAOGUI-02 (H*)
1 60327U 24135A   26160.72866253 -.00000156  00000+0  00000+0 0  9998
2 60327   0.0428 355.0957 0007510  12.1755 306.3259  1.00268716  7424
ZHONGXING-4A            
1 60606U 24151A   26160.79303103 -.00000345  00000+0  00000+0 0  9993
2 60606   1.3345 270.9273 0000472 214.7863 176.1586  1.00269090  6681
HULIANWAN GAOGUI-03 (H*)
1 61503U 24181A   26159.54233032 -.00000225  00000+0  00000+0 0  9994
2 61503   0.0452 355.5883 0001293 106.2275 273.1815  1.00266015  6737
DSN-3 (KIRAMEKI-3)      
1 61733U 24198A   26160.79814439 -.00000233  00000+0  00000+0 0  9991
2 61733   0.0143 294.3595 0000903 224.7285 170.4795  1.00269979  5842
KOREASAT 6A             
1 61910U 24206A   26160.07614222 -.00000345  00000+0  00000+0 0  9991
2 61910   0.0410 134.5680 0000909 283.0920 343.2187  1.00272075  5752
OPTUS-X (ADS-01)        
1 62006U 24212A   26160.80057106 -.00000126  00000+0  00000+0 0  9995
2 62006   0.0194 331.4289 0001694 147.9660 223.3900  1.00270788  5684
GSAT-N2 (GSAT-20)       
1 62028U 24214A   26160.85437294 -.00000002  00000+0  00000+0 0  9999
2 62028   0.0161 152.3998 0001994 279.3971 202.0119  1.00269115  5821
SXM-9                   
1 62259U 24234A   26160.64016946 -.00000188  00000+0  00000+0 0  9996
2 62259   0.0165 322.5469 0004800 351.5357  89.2433  1.00270739  5496
